the_geom,OBJECTID,Business Name,Address,Suite,Zip,Phone Number
POINT (-90.019905393762 29.911227182775),332,WAL-MART  #1163(ALGIERS),4001 BEHRMAN HWY,,70114,
POINT (-90.079430363141 29.935157810828),251,RED ZONE I,2025 ST CHARLES AVE,,70130,
POINT (-90.042646757267 29.967101679825),61,CAPTAIN SAL'S SEAFOOD & CHICKEN,3168 ST CLAUDE AVE,,70117,
POINT (-90.099967256932 29.958690719632),148,"HUEY LONG FOODS, LLC",4333 EUPHROSINE ST,,70125,
POINT (-89.911367964934 30.035968125017),69,CHEF MARKET,14400 CHEF MENTEUR HWY,,70129,
POINT (-89.992314528295 30.02847564279),88,CROWDER CENTER,5769 CROWDER BLVD,,70127,504-241-6555
POINT (-89.961463467552 30.04342760691),334,WAL-MART #912(EASTERN NO),6000 BULLARD AVE,,70128,479-204-6234
POINT (-90.007948358098 29.918707807633),314,TIGER MART,3450 KABEL DR,,70131,504-394-0240
POINT (-90.076989294557 29.951922709288),315,TODAY'S CAJUN,1700 ST CLAUDE AVE,,70116,
POINT (-90.088530872979 29.969271285635),226,NORMA'S SWEET BAKERY,2925 BIENVILLE AVE,,70119,504-309-5401
POINT (-90.070068409211 29.9297687441),72,CHIPPEWA FOOD STORE,1684 CHIPPEWA ST,,70130,
POINT (-90.082706506995 29.926252649772),74,CIEL MARKET,2801 MAGAZINE ST,STE. 4,70115,
POINT (-90.037161039214 29.94512400381),42,BROTHERS FOOD MART NO 122,1926 NEWTON ST,,70114,504-366-2413
POINT (-90.076582892185 29.985725798201),114,FAIR ZONE FOOD STORE 2,1825 GENTILLY BLVD,,70119,504-461-6175
POINT (-90.089613892179 29.963380470941),19,BANKS MEAT MARKET,325 S BROAD ST,,70119,504-822-9004
POINT (-90.122885731538 29.922299081601),185,M M A NEW ORLEANS LLC,6050 MAGAZINE ST,,70118,
POINT (-90.100217704488 29.940832037626),80,CLAIBORNE #165,4101 S CLAIBORNE AVE,,70125,
POINT (-90.117647833343 29.920834215075),340,WHOLE FOODS MARKET,5600 MAGAZINE ST,,70115,000-899-9119
POINT (-90.13026444504 29.95013195612),295,STOP & CARRY GROCERY,1328 DANTE ST,,70118,504-866-8347
POINT (-90.033864631369 29.964517456049),320,TRY ME COFFEE MILLS,1014 FRANCE ST,,70117,504-945-4314
POINT (-89.965717318842 30.018620015648),322,TWINS SEAFOOD,10240 CHEF MENTEUR HWY,,70127,
POINT (-90.088304905963 29.983228588044),307,THE BAYOU GROCERY,3443 ESPLANADE AVE,134,70119,
POINT (-90.124214245798 29.967202643521),252,REDBERRY'S HOT PLATES & PO BOYS,9103 FIG ST,,70118,504-264-0226
POINT (-90.070314950856 29.965630408797),155,J C FOOD MARKET,1532 ST PHILIP ST,,70116,504-221-8270
POINT (-90.085226895461 29.980645150829),305,TERRANOVA SUPERMARKET,3308 ESPLANADE AVE,,70119,
POINT (-90.067265019659 29.958663918945),317,TOULOUSE HOUSE,605 DAUPHINE ST,,70112,504-529-4270
POINT (-90.084734764806 29.967206350295),339,WHOLE FOODS MARKET,300 N BROAD ST,,70119,
POINT (-89.929135616567 30.032236173165),175,LATINOS MARKET,13235 CHEF MENTEUR HWY,STE D2,70129,
POINT (-90.132402986615 29.935202377356),284,SINGLETON MINI MART,7446 GARFIELD ST,,70118,504-866-4741
POINT (-90.058664858541 29.960791786166),154,J C DELI,65 FRENCH MARKET PL,,70116,504-522-2961
POINT (-90.114475359747 30.00498527935),73,CHRIS SPECIALTY FOODS,6251 WEST END BLVD,,70124,
POINT (-90.024856015032 29.928114644834),112,EVERGREEN SUPERMARKET,3011 SANDRA DR,,70114,504-368-1581
POINT (-90.090395375508 29.958770739886),152,INLAND SEAFOOD,2527 PERDIDO ST,,70119,504-821-4500
POINT (-90.09943017857 29.978305643036),345,WINN DIXIE STORE #1472,401 N CARROLLTON AVE,,70119,
POINT (-90.073560939023 30.001370666506),341,WILLIBY'S CATFISH LLC,4327 PARIS AVE,,70122,
POINT (-90.073399463627 29.961144757696),128,FRENCH QUATER FOOD MART,1534 SAINT LOUIS ST,A,70112,
POINT (-89.972309694458 30.018733937286),344,WINN DIXIE #1439,9701 CHEF MENTEUR HWY,,70127,504-244-0701
POINT (-90.051116003366 29.950876463746),122,FAUBOURG FRESH MARKET,541 BERMUDA ST,,70114,
POINT (-90.100097872802 29.921048906742),14,AVENUE MART LLC,4237 MAGAZINE ST,,70115,(504899-8579
POINT (-90.071234696353 29.938076735378),121,FAT BOY PANTRY,1302 MAGAZINE ST,,70130,
POINT (-89.999912773961 29.911395962499),1,A & J'S MART,5163 GENERAL DE GAULLE DR,,70131,504-394-4410
POINT (-90.012022035652 29.923630354496),343,WINN DIXIE #1426,3008 HOLIDAY DR,,70131,504-398-0313
POINT (-89.801162595894 30.071416277476),68,CHEF HARBOR,21135 CHEF MENTEUR HWY,,70129,504-662-5511
POINT (-90.089237394851 29.944319676401),156,JACKSON FOOD STORE,2801 JACKSON AVE,,70113,
POINT (-90.090938483475 29.928187510743),311,THE FRESH MARKET,3338 ST CHARLES AVE,,70118,336-217-4077
POINT (-90.121798454337 29.964868360332),153,J & P SUPERETTE,2941 EAGLE ST,,70118,
POINT (-90.108479443221 29.924484284776),309,THE CREOLE CREAMERY,4924 PRYTANIA ST,,70115,504-885-7028
POINT (-90.042603784029 29.963946443834),124,FRADY'S ONE STOP FOOD STORE,3231 DAUPHINE ST,,70117,
POINT (-90.065096769494 29.982223378928),35,BROOKS GROCERY,2434 ALLEN ST,,70119,5043039947
POINT (-90.077557427351 29.971907910096),151,IDEAL SUPER MARKET,2436 URSULINES AVE,,70119,504-821-9339
POINT (-90.015453644772 29.961378293959),71,CHICKEN MART II,5601 ST CLAUDE AVE,,70117,
POINT (-90.078000362258 29.94062806453),79,CK'S  HOT SHOPPE,1433 BARONNE ST,,70113,504-309-5150
POINT (-90.085086322362 29.938745249773),70,CHICKEN MART,2200 SIMON BOLIVAR AVE,,70113,504-522-8893
POINT (-90.042380099403 29.967056323888),331,WAGNERS,3200 ST CLAUDE AVE,,70117,504-301-1548
POINT (-90.10751345958 29.924450092776),346,ZARA'S LIL GIANT SUPERMARKET,4838 PRYTANIA ST,,70115,504-895-0581
POINT (-90.079356799319 29.968677610168),49,BUSY BEE FOOD STORE,2401 ORLEANS AVE,A,70119-5027,504-821-5586
POINT (-90.038777234312 29.97198951086),336,WE GOT IT,3401 N CLAIBORNE AVE,,70117,
POINT (-89.739391994785 30.164068736218),330,"VINOT'S MARINA, LLC",27010 CHEF MENTEUR HWY,,70129,
POINT (-90.021155486716 30.034317301373),147,HAYNE SUPERMARKET,6318 HAYNE BLVD,,70126,504-244-9739
POINT (-90.110329331671 29.981336791496),312,THE HERB IMPORT COMPANY,5055 CANAL ST,,70119,504-488-4889
POINT (-89.91223667081 30.037409320956),329,VIET MY SUPERMARKET,4656 ALCEE FORTIER BLVD,,70129,504-254-0682
POINT (-89.818452798836 30.070799135257),26,BIG BOY DISTRIBUTORS,4441 SAN GIORGIO ST,,70129,504-628-5689
POINT (-89.912274866341 30.036518000962),318,TRAN LEGACY LLC,14389 CHEF MENTEUR HWY,,70129,
POINT (-90.072243269939 29.944546989035),328,VHKR & ASSOCIATES INC D/B/A   PRICE BUSTERS,867 ST CHARLES AVE,,70130,504-529-3759
POINT (-90.106148280625 29.935283958387),267,ROUSES MARKET #83,4645 FRERET ST,,70115,
POINT (-90.068615888491 29.953830693614),323,UNIQUE GENERAL STORE,127 ROYAL ST,,70130,
POINT (-90.118667263273 29.941047550523),321,TULANE CATERING,31 MCALISTER DR,,70118,504-865-5254
POINT (-90.06859372777 29.95317636328),86,CREOLE SUPERSTORE,623 CANAL ST,,70130,504-586-0703
POINT (-90.100564500453 29.951143569012),117,FAST STOP,2745 S BROAD ST,,70125,
POINT (-90.112623134571 29.92058137995),143,GUY'S FOOD STORE,5259 MAGAZINE ST,,70115,504-891-5025
POINT (-90.094156019576 29.925506605722),242,PRYTANIA MART,3636 PRYTANIA ST,,70115,
POINT (-90.070761844304 29.952739693869),41,BROTHERS FOOD MART 109,148 CARONDELET ST,,70130,
POINT (-90.109986602005 29.965227078608),78,CIRCLE K #2707673,3725 S CARROLLTON AVE,,70118,504-486-8377
POINT (-90.117599871971 30.005572416608),338,WEST HARRISON DELI & MARKET,206 W HARRISON AVE,,70124,
POINT (-90.099010576937 29.941069657974),113,EZGO,3701 S CLAIBORNE AVE,,70125,504-473-6940
POINT (-90.009551503804 30.011552259434),306,TEX MART,6733 CHEF MENTEUR HWY,,70126,504-333-6282
POINT (-90.010462442348 30.011375732797),67,CHEF FUEL LLC,6711 CHEF MENTEUR HWY,,70126,
POINT (-89.861794209623 30.145278583545),120,FAST STOP OF IRISH,3684 RIDGEWAY BLVD,STE #A,70129,504-603-4483
POINT (-90.061175279022 29.96209733698),327,VERTI MARTE INC,1201 ROYAL ST,,70116,504-525-4767
POINT (-90.035124085316 30.001835386303),96,DAY & NIGHT DISCOUNT,4039 LOUISA ST,B,70126,
POINT (-90.0598851894 30.012307809027),58,CANSECO'S ELYSIAN FIELDS,5217 ELYSIAN FIELDS AVE,,70122,504-304-9805
POINT (-90.06931294818 29.924875380066),333,WAL-MART #5022 (UPTOWN),1901 TCHOUPITOULAS ST,,70130,504-522-4142
POINT (-90.076793346064 29.97738118601),33,BROADVIEW SEAFOOD,1468 N BROAD ST,,70119,504-945-2118
POINT (-90.053270056191 29.99675665197),28,BIG EASY POBOY & SEAFOOD,3700 CLEMATIS ST,,70122,504-415-6595
POINT (-90.019984547374 29.909550717787),24,BEHRMAN CAJUN SEAFOOD,4021 BEHRMAN HWY,C,70114,504-813-3986
POINT (-90.021708529497 30.014775030981),180,LOUISIANA PRIDE SEAFOOD,4418 DOWNMAN RD,,70126,504-248-7522
POINT (-90.116592026948 29.91604815063),342,WINN DIXIE  #1430,5400 TCHOUPITOULAS ST,,70115,504-895-2966
POINT (-90.076989294557 29.951922709288),316,TOMMY'S BLUE CRAB,2103 PARIS RD,1452,70129,
POINT (-90.066368348801 29.973370699282),76,CIRCLE H MEAT MARKET,1600 ST BERNARD AVE,,70116,
POINT (-89.982184534371 30.02939555155),313,THE LIQUOR STORE DEPOT,9301  LAKE FOREST BLVD,109,70127,504 905 9111
POINT (-90.049458441916 29.968660468099),145,HANK'S SEAFOOD & SUPERMARKET,2634 ST CLAUDE AVE,,70117,504-247-3731
POINT (-90.000904322955 29.911994827896),8,ALGIERS FUEL DISCOUNT LLC,5101 GENERAL DE GAULLE DR,,70131,
POINT (-90.090253277829 29.948293294504),149,I GOTCHA GROCERIES,3208 THALIA ST,,70125,
POINT (-90.097981138239 29.978399614138),85,CREOLE COUNTRY INC,512 DAVID ST,,70119,
POINT (-89.986130364621 29.925677966227),158,JAMBALAYA GIRL,6315 PATTERSON ST,,70131,
POINT (-90.070673344235 29.984927088372),90,D & M DISCOUNT STORE,2037 N BROAD ST,,70119,504-235-3478
POINT (-89.993247916412 30.013710001683),108,EAST SIDE CASH & CARRY INC,7943 CHEF MENTEUR HWY,,70126,504-243-9797
POINT (-90.076989294557 29.951922709288),337,WE SERV FOOD STORE,3319 N N GALVEZ ST,,70122,
POINT (-90.031326434293 29.964491406062),319,TRUE CAJUN SEAFOOD,4400 ST CLAUDE AVE,,70117,504-948-8998
POINT (-90.022968620619 29.940426723668),9,ALGIERS SUPERMARKET,3141 GENERAL MEYER AVE,,70114,504-473-1212
POINT (-90.110647659927 29.967936655128),83,COSTCO WHOLESALE 1147,3900 DUBLIN ST,,70118,425-313-8100
POINT (-90.126423004679 29.937415855341),75,CIEL MARKET,7133 ST CHARLES AVE,,70118,
POINT (-90.06558207971 29.972151044654),308,THE CIRCLE FOOD MARKET,1522 ST BERNARD AVE,,70116,
POINT (-90.076989294557 29.951922709288),11,AMERICAN SEAFOOD INC,3034 HAVANA ST,,70122,
POINT (-90.061051429526 29.958835382612),65,CENTRAL GROCERY CO.,923 DECATUR ST,,70116,504-523-1620
POINT (-90.088572565855 29.963900282876),150,IDEAL DISCOUNT SUPERMARKET,250 S BROAD ST,,70119,504-822-4232
POINT (-90.076989294557 29.951922709288),125,FRANCE MEAT MARKET,1339 FRANCE ST,,70117,504-949-2407
POINT (-90.076989294557 29.951922709288),82,COMPAK FOOD & DELI,501 DAUPHINE ST,,70112,504-525-2311
POINT (-90.021260380171 30.018230035093),105,DOWNMAN SUPERMARKET,4827 DOWNMAN RD,,70126,504-242-2882
POINT (-90.024595285968 30.025278143098),119,FAST STOP,7200 DOWNMAN RD,,70126,
POINT (-90.058418996107 29.961028678935),10,ALTALIEH CONVENIENCE,87 FRENCH MARKET PL,,70116,504-339-8438
POINT (-90.039356823812 30.005216761007),335,WALMART #3167(GENTILLY),4301 CHEF MENTEUR HWY,,70164,479-204-6234
POINT (-90.104075543615 29.968764171495),272,SANDWICH SHOP,645 S PIERCE ST,,70119,504-482-3295
POINT (-90.0978528562 29.964860447981),45,BROWN DERBY #3,3326 TULANE AVE,,70119,504-827-7899
POINT (-89.961730828006 30.047884086461),43,BROTHERS FOOD MART NO 127,7001 BULLARD AVE,,70128,
POINT (-89.986130364621 29.925677966227),157,JAMBALAYA GIRL,6315 PATTERSON DR,,70131,504-943-0853
POINT (-90.079916568456 29.944893970647),324,UPTOWN DISCOUNT STORE,1141 SIMON BOLIVAR AVE,,70113,504-610-7162
POINT (-90.072160567787 29.966119283395),326,V & T FOOD STORE,913 N CLAIBORNE AVE,,70116,504-827-9997
POINT (-90.116704704989 29.926626736056),184,M LANGENSTEIN & SONS INC,1330 ARABELLA ST,,70115,504-899-5001
POINT (-90.10071116496 29.951430346835),60,CAPSTONE 118,4035 WASHINGTON AVE,,70125,
POINT (-90.073182612543 29.943511889095),77,CIRCLE K #2707672,704 HOWARD AVE,,70130,504-586-3042
POINT (-90.063293825977 29.94773526893),87,CRESCENT CITY MARKETPLACE,2 POYDRAS ST,,70130,
POINT (-90.076989294557 29.951922709288),84,COURT LIQUORS,618-620 BOURBON ST,,70130,504-581-5804
POINT (-90.111735057594 29.956559532172),89,CTN GROCERY,2931 BROADWAY ST,,70125,
POINT (-90.092867040416 29.930129203632),18,BACK ON THE AVENUE,3401 BARONNE ST,,70115,
POINT (-90.068486455332 29.941694279561),238,POEYFARRE MARKET,925 POEYFARRE ST,,70130,504-522-5252
POINT (-90.05065667633 30.012550600808),146,HAPPY DISCOUNT,5301 FRANKLIN AVE,,70122,
POINT (-90.068734787295 29.955764111309),13,ARNAUD'S FOOD COMPANY'S  INC,813 BIENVILLE ST,,70112,504-523-5433
POINT (-90.061834922165 30.023425087106),110,ELYSIAN FIELDS SHELL,6300 ELYSIAN FIELDS AVE,,70122,504-884-8766
POINT (-90.076989294557 29.951922709288),310,THE EVERYTHING SHOPPE,444 CANAL ST,,70130,504-586-0703
POINT (-90.090573356516 29.933201095767),325,UPTOWN FOOD MARKET,2001 SEVENTH ST,,70115,504-555-1234
POINT (-90.049021257163 29.974264440136),81,CLAIBORNE SUPERMARKET,2541 N CLAIBORNE AVE,,70117,504-948-2327
POINT (-90.09943177962 29.95008058892),5,AEREN'S SUPERMARKET,3911 WASHINGTON AVE,,70125,504-302-9875
POINT (-90.100263764319 29.950856066317),51,CAJUN SEAFOOD,2730 S BROAD ST,,70125,504-822-6185
POINT (-90.052082721172 29.946698174991),6,ALGIERS CENTRAL MARKET,840 TECHE ST,,70114,504-366-3221
POINT (-90.016879628305 29.961722425935),293,ST. MAURICE GROCERY,5467 ST CLAUDE AVE,A,70117,504-000-0000
POINT (-90.076989294557 29.951922709288),249,READ SUPERMARKET,7045 READ BLVD,A,70127,504-244-0741
POINT (-90.052079865595 30.021643536452),126,FRANKLIN DISCOUNT,6100 FRANKLIN AVE,,70122,
POINT (-90.047486051616 29.97722427571),53,CAJUN SEAFOOD 2,1901 ALMONASTER AVE,,70117,504-945-5447
POINT (-90.126049679722 29.960795598782),100,DISCOUNT CORNER,8733 S CLAIBORNE AVE,,70118,504-864-0057
POINT (-90.077682298641 29.976371599768),106,E&L MART,1410 N BROAD ST,,70119,
POINT (-90.111533790201 30.020637775745),258,ROBERT FRESH MARKET(ROBT E LEE),135 ALLEN TOUSSAINT BLVD,,70124,504-885-7005
POINT (-89.969569805861 30.057042239228),116,FAMILY RANCH MARKET,11950 HAYNE BLVD,,70128,504-243-1944
POINT (-90.072379747629 29.971765108012),101,DISCOUNT EXPRESS,2000 ESPLANADE AVE,,70116,504-433-8600
POINT (-90.073017894238 29.992885183192),182,LUCY'S SUPERMARKET,3443 PARIS AVE,,70122,
POINT (-90.088304905963 29.983228588044),247,RC FOUNTAIN SERVICES OF LOUISIANA,3443 ESPLANADE AVE,134,70119,504-822-2250
POINT (-90.08774928797 29.965515303894),56,CANAL MART & EATERY,2700 CANAL ST,A,70119,504-821-7730
POINT (-90.073713765863 29.961238587475),237,PAUL PIAZZA & SON INC,1552 ST LOUIS ST,,70112,504-524-6011
POINT (-90.050421905135 29.948514295701),231,OPELOUSAS POINT SUPERMARKET,601 OPELOUSAS AVE,,70114,
POINT (-90.10680712491 29.969591711615),104,"DOORDASH ESSENTIALS, LLC",4101 S CARROLLTON AVE,4104,70119,650-681-9470
POINT (-90.074406818648 29.928523677809),17,B & S FOOD STORE,842 JOSEPHINE ST,,70130,
POINT (-90.13128437985 29.956317025152),103,DON'S FOOD  MART,1730 EAGLE ST,,70118,
POINT (-90.037785477168 29.966017663187),200,MIKE'S FOOD STORE,3708 ST CLAUDE AVE,,70117,504-390-7943
POINT (-90.067049441458 29.974737015023),92,DANNY'S PACKAGE LIQUOR & SEAFOOD MKT,1812 ONZAGA ST,,70116,504-949-8666
POINT (-90.072482405905 29.95806741366),211,NEW IMAGE MARKET,1216 BIENVILLE ST,,70112,
POINT (-90.051969783282 29.964942085969),278,SCHIRO'S SUPER FOOD STORE,2483 ROYAL ST,,70117,504-945-4425
POINT (-90.114908992626 30.023858873569),279,SCHUBERT MARINE,126 S ROADWAY ST,,70124,5042828136
POINT (-90.042394239961 29.945398866128),217,NEWTON DISCOUNT MARKET,1424 NEWTON ST,,70114,504-368-3692
POINT (-90.10238926156 29.916910432706),262,ROUSES MARKET #26(UPTOWN),4500 TCHOUPITOULAS ST,,70115,985-447-5998
POINT (-89.990869842431 30.014069683334),270,SAM'S FOOD & LIQUOR,8201 CHEF MENTEUR HWY,,70126,504-610-7012
POINT (-90.125334422119 29.945537782293),4,ADAMS STREET GROCERY,1309 ADAMS ST,,70118,
POINT (-89.984628331077 29.923548016234),300,T & T FOOD MART,6419 GENERAL MEYER AVE,,70131,504-393-0201
POINT (-90.062963511272 29.970084731391),174,LARRY & LARRY GROCERY,1340 ANNETTE ST,,70116,
POINT (-89.742569856456 30.146836195096),239,POMES SEAFOOD,26064 CHEF MENTEUR HWY,,70129,504-662-5026
POINT (-90.089249979978 29.946401856865),99,DISCOUNT CITY,2013 S CLAIBORNE AVE,D,70125,
POINT (-90.084498011128 29.980560028655),59,CANSECO'S ESPLANADE MARKET,3135 ESPLANADE AVE,,70119,504-322-2594
POINT (-90.091054336351 29.931805891715),36,BROTHER CORNER GROCERY,3201 DRYADES ST,,70115,504-891-0275
POINT (-90.075835490737 30.006149227438),274,SAV-A-LOT PARIS,4726 PARIS AVE,,70122,
POINT (-90.073964813901 29.947843540234),260,ROUSE'S MARKET #46(CBD),701 BARONNE ST,,70113,504-227-3838
POINT (-90.068659882115 29.96989254177),192,MAN CHU FOOD STORE & CHINESE  FOOD,1413 N CLAIBORNE AVE,,70116,504-947-5507
POINT (-89.94498321058 30.012111544861),235,PALACE TRUCK STOP & CASINO,12170 OLD GENTILLY RD,,70129,
POINT (-90.07722986226 29.96725599215),54,CAJUN WILLS,2127 ORLEANS AVE,,70116,504-821-6386
POINT (-90.014875401181 30.010130317941),123,FOOD PLUS,6232 CHEF MENTEUR HWY,UNIT A,70126,504-246-2628
POINT (-90.078228009937 29.993840794513),296,STOPJOCKIN,3600 JUMONVILLE ST,,70122,
POINT (-90.092276675018 29.939631140245),64,CENTRAL CITY GROCERY #3,2611 WASHINGTON AVE,,70113,
POINT (-90.065096667332 29.950860511482),230,OMNI LLC,333 CANAL ST,STE 333,70130,814-521-9012
POINT (-89.974647245189 30.01754198289),202,MINI MARKET DON VILLA,9511 CHEF MENTEUR HWY,STE #102,70127,
POINT (-90.048008168511 29.977125829774),127,FRANKLIN FOOD MART,1843 FRANKLIN AVE,,70117,
POINT (-89.984049667321 29.923220297258),25,BENNS GROCERY,6445 ISADORE ST,,70131,504-394-5800
POINT (-90.076989294557 29.951922709288),271,SAM'S MEAT MARKET,8426 I 10 SERVICE RD,,70127,
POINT (-90.076989294557 29.951922709288),55,CANAL FUEL MART,4701 CANAL STREET,,70119,
POINT (-90.068762481289 29.953296670627),223,NOLA STYLE DE VIE,635 CANAL ST,,70130,
POINT (-90.066684402037 29.947361153343),170,LAFAYETTE MINI MART,322 LAFAYETTE ST,,70130,504-522-1710
POINT (-89.97902656146 30.051703843972),63,CASTNET,10826 HAYNE BLVD,,70127,
POINT (-90.079161074226 29.944684686488),107,EARHART 169,2000 EARHART BLVD,,70113,
POINT (-90.118667263273 29.941047550523),47,BRUFF STUFF,31 MCALISTER DR,,70118,504-865-5293
POINT (-90.064771372019 29.958102386236),264,ROUSES MARKET #30,701 ROYAL ST,,70116,504-447-5998
POINT (-90.066380753172 29.95102175518),50,CAJUN COUNTRY STORE,400 CANAL ST,,70130,504-586-8753
POINT (-90.066028246976 29.961328059028),243,QUARTER GROCERY & DELI,836 BURGUNDY ST,,70116,504-529-2702
POINT (-89.959491208141 30.045109414721),228,NS DISCOUNT EXPRESS,6041 BULLARD AVE,,70128,
POINT (-90.133750108902 29.950718202179),161,JSK DISCOUNT,8539 OAK ST,STE #A,70118,
POINT (-90.021204489649 30.010279161891),118,FAST STOP,5855 CHEF MENTEUR HWY,,70126,504-635-5661
POINT (-90.096752672849 29.954871356058),253,RESTAURANT DEPOT,1111 S BROAD ST,,70125,504-822-8881
POINT (-90.077627154369 29.980972783999),136,"GENTILLY DISCOUNT,LLC",1629 GENTILLY BLVD,,70119,
POINT (-90.076688850127 29.962241854081),137,GLORIA'S GROCERY,1800 CONTI ST,,70112,
POINT (-90.120664034947 29.957054464413),257,ROBERT FRESH MARKET #124,8115 S CLAIBORNE AVE,,70118,
POINT (-90.095945301669 29.948297537148),139,GOOD GOOD COFFEE,2518 S MIRO ST,,70125,
POINT (-90.127487712864 29.963772003863),215,NEW ORLEANS SAUSAGE COMPANY,2525 HAMILTON ST,,70118,
POINT (-90.064357803439 29.961789081768),194,MATASSA'S MARKET,1001 DAUPHINE ST,,70116,504-412-8700
POINT (-90.10707115022 29.920594604826),246,RAINBOW GROCERY,4837 MAGAZINE ST,,70115,
POINT (-90.069829056332 29.955721905122),95,DAUPHINE FOOD MART,215 DAUPHINE ST,,70112,
POINT (-90.071449071823 29.982083405195),197,MID CITY MARKET,2526 ST BERNARD AVE,,70119,504-324-9273
POINT (-90.096278156115 29.96418221119),163,K & T FOOD STORE,3204 TULANE AVE,,70119,
POINT (-90.033606593077 29.965625339),190,MAGNOLIA SUPERMARKET # 3,4131 ST CLAUDE AVE,,70117-5336,504-948-2224
POINT (-90.091364216493 29.944658711818),287,SOUTH CLAIBORNE MARKET,2349 S CLAIBORNE AVE,,70125,
POINT (-90.117321255614 30.005890747715),173,LAKEVIEW MINI MART,207 W HARRISON AVE,,70124,504-872-0522
POINT (-89.911706155856 30.037540629644),201,MINH CANH SUPERMARKET,4661 ALCEE FORTIER BLVD,STE C-D,70129,
POINT (-90.027092734627 30.032274434874),288,SPEED RACER,8020 DOWNMAN RD,104,70126,504-248-2005
POINT (-90.001739059241 30.011739043564),207,NATAL'S SUPERMARKET,7342 CHEF MENTEUR HWY,,70126,504-362-3911
POINT (-90.025441724898 29.927311712994),94,DAT'S CAJUN SEAFOOD,3020 GENERAL DE GAULLE DR,,70114,504-362-8252
POINT (-89.963239246408 30.048361891587),109,EASTOVER MARKET,7050 BULLARD AVE,,70128,504-244-0741
POINT (-90.041062020337 29.945352416292),222,NOLA FOOD MART,943 WHITNEY AVE,,70114,985-856-6088
POINT (-90.061142064221 29.95874955114),283,SIDNEY'S WINE CELLAR,917 DECATUR ST,,70116,
POINT (-90.018374924861 29.967454849947),131,FUEL N MART,5201 N CLAIBORNE AVE,,70117,
POINT (-90.091631734139 29.929169182979),181,LOUISIANA SUPER SAVER,1641 LOUISIANA AVE,A,70115,504-891-6670
POINT (-90.107691684146 29.976411409416),229,OLYMPIA FOOD STORE INC,301 S OLYMPIA ST,,70119,504-231-4883
POINT (-89.927778207906 30.032576046553),195,MATT'S GROCERY 2,4655 MICHOUD BLVD,,70129,
POINT (-90.011466385707 30.037513036258),132,FUEL N MART,7220 HAYNE BLVD,,70126,
POINT (-89.913328321234 30.041606935473),135,GARIFUNA MARKET,14402 DWYER BLVD,,70129,
POINT (-90.076989294557 29.951922709288),3,ADAMS FOOD STORE #3,3001 BIENVILLE ST,,70119-5401,504-861-1120
POINT (-90.088267302362 29.942792436572),188,MAGNOLIA SUPERMARKET,2201 MAGNOLIA ST,,70113,504-523-0017
POINT (-90.096821081852 29.976576256069),263,ROUSES MARKET #29(CARROLLTON),400 N CARROLLTON AVE,,70119,
POINT (-89.967193907869 30.018323343739),303,TAN VIET WAREHOUSE,10100 CHEF MENTEUR HWY,,70127,504-241-9903
POINT (-90.080635412263 29.923533111714),219,NICKS SUPERMARKET,746 WASHINGTON AVE,,70130,
POINT (-90.090161901843 29.937801891841),130,FRIENDLY SUPERMARKET,2704 LA SALLE ST,,70113,
POINT (-90.069988912638 29.952153906983),268,S & K GIFT AND SNACKS,201 ST CHARLES AVE,#223,70170,
POINT (-89.912066147199 30.039183783686),183,LY'S SUPERMARKET,14401 PELTIER DR,130,70129,504-254-4380
POINT (-89.989134921084 30.04670832449),144,HABIBI GROCERY,9530 HAYNE BLVD,,70127,504-220-8250
POINT (-90.123197589996 29.962114347706),196,MCKENZIE FOOD STORE,8638 BELFAST ST,,70118,504-866-4970
POINT (-90.086452516052 29.943962410888),164,KELLER MARKET FOOD STORE,1802 MAGNOLIA ST,,70113,504-523-8648
POINT (-90.04158844227 29.929638574716),221,NOLA DISCOUNT FOOD STORE,2204 L B LANDRY AVE,,70114,
POINT (-90.068459565509 29.952451187846),97,DEEP SOUTH TRADING CO,600 CANAL ST,,70130,504-586-8753
POINT (-90.108248729479 29.935080936354),129,FRERET STOP,4929 FRERET ST,,70115,
POINT (-89.98063037259 30.015005672617),12,ARACELY TIENDA HISPANA LLC,9000 CHEF MENTEUR HWY,A,70127,
POINT (-90.076989294557 29.951922709288),292,ST. LOUIS MARKET,730 ST. LOUIS STREET,,70130,504-451-6811
POINT (-90.048156460637 29.973748870562),245,QUICKIES DISCOUNT,1535 FRANKLIN AVE,,70117,504-259-3655
POINT (-89.991699695334 30.02762875068),40,BROTHERS FOOD MART  NO 132,5701 CROWDER BLVD,,70127,504-366-2413
POINT (-90.01927611874 29.938688005792),7,ALGIERS DISCOUNT FOOD STORE,3549 GENERAL MEYER AVE,,70114,
POINT (-90.046035942576 30.002410598446),30,BOILING POT AT GENTILLY,3868 GENTILLY BLVD,,70122,
POINT (-90.085893105983 29.945171053157),39,BROTHERS DISCOUNT,2701 MARTIN LUTHER KING JR BLVD,,70113,504-525-5300
POINT (-90.014464227185 29.920483535643),266,ROUSES MARKET #36(DE GAULLE),4001 GENERAL DE GAULLE DR,,70114,985-447-5998
POINT (-90.018529134678 29.92403131143),37,BROTHER FOOD MART NO. 136,3622 GENERAL DE GAULLE DR,,70114,504-366-2413
POINT (-90.087055167956 29.949597786144),62,CART JOHNNY SMITH WHLS LLC,2920 EARHART BLVD,,70125,504-524-4196
POINT (-90.061506984558 29.964690060342),111,ESPLANADE MINI MART,839 ESPLANADE AVE,,70116,504-329-8179
POINT (-90.038217741155 29.977338645439),240,POPPA'S SEAFOOD & DELI,3311 N GALVEZ ST,,70117,504-947-3373
POINT (-90.070845373972 29.950951130263),205,MOMS MINI MART,327 ST CHARLES AVE,,70130,504-596-2223
POINT (-90.020639725897 29.925316567452),198,MIKE'S DISCOUNT 2,3600 MACARTHUR BLVD,B-2,70114,504-368-1350
POINT (-90.046917508466 29.981273777034),191,MAMA'S COOKING,2722 N TONTI ST,,70117,
POINT (-90.076989294557 29.951922709288),93,DAP MINISTRIES OUTLET,1234 PRESS DR,,70117,
POINT (-90.061956772381 29.967917482703),2,A & M FOOD STORE,1741 JOSEPH GUILLAUME PL,,70116,
POINT (-90.059023644688 29.973014812352),297,SUNSHINE FOOD MARKET,2020 N CLAIBORNE AVE,,70116,504-304-6135
POINT (-89.981250612467 30.014991441964),285,SOHANA GROCERY,8900 CHEF MENTEUR HWY,,70127,504
POINT (-90.082568661226 29.942860681516),241,PROJECT FOOD STORE #2,2238 MARTIN LUTHER KING JR BLVD,,70113,504-586-1762
POINT (-90.084367260284 29.943846847443),22,BAYOU FOOD STORE OF N. O,2432 MARTIN LUTHER KING JR BLVD,,70113,504-522-1004
POINT (-90.08133661069 29.972096466228),187,MAGNOLIA MEAT MARKET,900 N BROAD ST,,70119,504-827-1281
POINT (-90.072153981133 29.954910959124),23,BAYOU GIFTS,1000 CANAL ST,,70130,
POINT (-89.97762350639 30.03850855821),52,CAJUN SEAFOOD #4,7020 READ BLVD,,70127,504-241-1396
POINT (-90.071705469347 29.983691972989),227,NORTH BROAD SUPERMARKET,1901 N BROAD ST,,70119,504-945-7369
POINT (-89.980786717109 30.042348592751),248,READ SEAFOOD,7340 READ BLVD,,70127,504-377-8892
POINT (-90.081520352995 29.967798519509),259,ROCHEBLAVE FOOD STORE,601 N ROCHEBLAVE ST,,70119,
POINT (-90.057212000722 29.978814292306),91,DANNY FOOD STORE,2101 ELYSIAN FIELDS AVE,,70117,
POINT (-90.105419636393 30.005017634301),172,LAKEVIEW GROCERY,801 HARRISON AVE,,70124,504-207-0162
POINT (-90.076989294557 29.951922709288),299,SWIRL,3141 3143 PONCE DE LEON ST,,70119,504-304-0635
POINT (-89.972487173775 30.046546723894),167,KWIK PIK,11040 MORRISON RD,,70127,504-606-2833
POINT (-90.10238926156 29.916910432706),261,ROUSES MARKET #26,4500 TCHOUPITOULAS ST,,70115,504-896-7910
POINT (-90.096031144406 29.937276218218),165,KEY FOOD STORE,2600 LOUISIANA AVE,,70115,504-897-6514
POINT (-90.089376595353 29.962930649381),32,BROAD & BANKS SEAFOOD,342 S BROAD ST,,70119,
POINT (-90.090535669739 29.937588147639),286,SOUL'S SEAFOOD MARKET #1,2732 LASALLE ST,,70113,
POINT (-89.960450915049 30.020878530563),203,MINI MARKET LA CONSENTIDA LLC,10715 CHEF MENTEUR HWY,STE A,70127,
POINT (-90.084739222525 29.968093863639),138,GOLDEN EXPRESS,400 N BROAD ST,,70119,
POINT (-90.09299298299 29.931916183708),115,FAMILY DISCOUNT STORE,1935 LOUISIANA AVE,,70115,504-895-4272
POINT (-90.064811286358 29.98138426885),254,RICHARD'S FOOD STORE,2001 N ROCHEBLAVE ST,,70119,504-944-2891
POINT (-90.113419520221 29.946207863374),29,BIRDIES CLAIBORNE,6229 S CLAIBORNE AVE,,70117,985-308-0022
POINT (-90.071760684628 29.988947579743),204,MIRACLES TO GO,3040 BRUXELLES ST,,70119,504-252-8290
POINT (-90.051787888571 29.979962442149),277,SAVERS 2,2440 N MIRO ST,,70117,225 337 4285
POINT (-90.0400759319 29.944971979583),176,LAWSON'S GROCERY & DELI,1625 NEWTON ST,,70114-2604,504-368-4958
POINT (-90.076440640472 29.929661233979),159,JEWEL'S FOOD STORE,2136 MAGAZINE ST,,70130,504-524-9355
POINT (-90.012855752183 29.971371185869),134,GALVEZ GOODIES,2036 CAFFIN AVE,,70117,504-319-5886
POINT (-90.099010576937 29.941069657974),140,GOPUFF,3701 S CLAIBORNE AVE,,70125,401-327-1254
POINT (-89.989427025353 30.024450327616),169,LA FOOD,5200 CROWDER BLVD,,70127,504-638-1350
POINT (-90.094371638917 29.965858020913),236,PARAISO GROCERY,3128 BANKS ST,,70119,
POINT (-90.076989294557 29.951922709288),213,NEW ORLEANS FISH HOUSE LLC,921  DUPRE ST,,70125,504-821-9700
POINT (-89.927411706044 30.031851359283),66,CHEF CHEVRON,13301 CHEF MENTEUR HWY,,70129,504-254-8984
POINT (-90.076989294557 29.951922709288),214,NEW ORLEANS FOOD CO-OP,2372 ST. CLAUDE AVENUE,STE. 110,70117,504-324-6849
POINT (-90.09173668005 29.919281850904),20,BARCIA'S GROCERY INC,3633 ANNUNCIATION ST,,70115,504-899-9111
POINT (-90.054241836446 29.969012037347),244,QUICK STOP SHOP,2301 ST CLAUDE AVE,,70117,
POINT (-90.054762599341 29.9630263051),141,GRANDE KREWE,511 MARIGNY ST,,70117,
POINT (-90.099718212342 29.940895179154),162,K & T COMMUNITY,3733 S CLAIBORNE AVE,,70125,504-822-8915
POINT (-90.080638228044 29.974466255347),269,S EXPRESS FOOD STORE,2703 URSULINES AVE,,70119,
POINT (-90.008742662016 29.964337231061),189,MAGNOLIA SUPERMARKET,6100 N CLAIBORNE AVE,,70117,504-628-6781
POINT (-90.076989294557 29.951922709288),291,ST. CHARLES MARKET,303 ST. CHARLES AVE,,70130,
POINT (-90.035956879636 30.00513891837),133,FUEL ZONE,4500 CHEF MENTEUR HWY,,70126,
POINT (-90.020639725897 29.925316567452),280,SEAFOOD ZONE,3600 MACARTHUR BLVD,STE M,70114,504-367-0550
POINT (-90.080668951256 29.943954731005),142,GUSTE HOMES RESIDENT MANAGEMENT CORPORATION,1301 SIMON BOLIVAR AVE,,70113,
POINT (-90.076989294557 29.951922709288),212,NEW ORLEANS FISH HOUSE,P.O BOX 4126,,70178,504-821-9700
POINT (-90.076989294557 29.951922709288),208,NEIGHBORHOOD DISCOUNT SUPERMARKET,3222 BARONNE ST,,70115,504-899-4954
POINT (-90.07926257345 29.96510239089),233,OVERFLOW MARKET & CAFE,432 N GALVEZ ST,,70116,
POINT (-90.054206857653 30.028183997923),265,ROUSES MARKET #35(GENTILLY),6600 FRANKLIN AVE,,70122,
POINT (-90.076989294557 29.951922709288),57,CANSECO'S CARROLLTON MARKET,1133 S CARROLLTON AVE AVE,,70118,
POINT (-90.068895456545 29.95962519443),234,P & J OYSTER CO,1039 TOULOUSE ST,,70112,504-523-2651
POINT (-90.078348211519 29.951267900741),224,NOLA SUNDRY,1450 POYDRAS ST,STE 120,70112,504-667-6932
POINT (-90.034488229446 29.992567882868),178,LOUISA MINI MART,3423 LOUISA ST,,70126,504-392-5513
POINT (-90.040495089397 29.945326564599),216,NEWTON CORNER MART,1600 NEWTON ST,,70114,
POINT (-90.07826949396 29.998946403644),166,KING FOOD STORE,4101 JUMONVILLE ST,,70122,
POINT (-90.118713740516 29.916084770997),304,TCHOUP-STOP,5600 TCHOUPITOULAS ST,,70115,504-595-3112
POINT (-90.076989294557 29.951922709288),98,DEXEMCA INC,1143 ST BERNARD,,70116,504-595-7385
POINT (-90.062683322551 29.966698347872),15,AYYAD RAMPART,1700 N RAMPART ST,,70116,
POINT (-90.056054896082 29.968358854848),256,ROBERT FRESH MARKET,2222 ST CLAUDE AVE,,70117,
POINT (-90.085840850946 29.96416984738),250,RED ZONE,2530  CANAL ST,,70119,616-337-0247
POINT (-90.08288634294 29.971298506485),232,ORLEANS CENTER MARKET,2707 ORLEANS AVE,,70119,
POINT (-90.129463224697 29.955137610335),302,T AND M FOOD MART,8601 HICKORY ST,,70118,504-915-9115
POINT (-90.036329126921 29.965571407892),220,NIKKI FOOD STORE,3900 ST CLAUDE AVE,,70117,504-945-6655
POINT (-90.035416980875 29.965899379565),199,MIKE'S FOOD MART,3935 ST CLAUDE AVE,,70117,225-573-4326
POINT (-90.077115563802 29.92953730034),294,STEIN'S MARKET AND DELI,2207 MAGAZINE ST,,70130,504-527-0771
POINT (-89.973931758757 30.032979759903),275,SAVE-A-LOT LAKE FOREST,9999 LAKE FOREST BLVD,,70127,
POINT (-90.067831029863 29.950467848896),209,NESBIT'S MAGAZINE STREET MARKET,301 MAGAZINE ST,,70130,
POINT (-90.119653822911 29.955581919067),298,SUPER SERVE,8023 S CLAIBORNE AVE,,70125,504-862-9079
POINT (-90.076989294557 29.951922709288),282,SHACK BROWN INVESTMENTS,120 N GALVEZ,,70119,
POINT (-90.063233957185 29.956002452179),27,BIG EASY MARDI GRAS CO,600 DECATUR ST,,70130,504-524-4729
POINT (-90.094224292105 29.933558016896),179,LOUISIANA MEAT MARKET,2136 LOUISIANA AVE,,70115,504-259-3651
POINT (-90.06711173033 29.952157164806),102,DIXIE MARKET,501 CANAL ST,,70130,504-586-8753
POINT (-90.07338263653 29.925467088509),301,T & T SEAFOOD,548 JACKSON AVE,,70130,
POINT (-90.096759500936 29.929135085263),193,MARTIN WINE CELLAR,3827 BARONNE ST,,70115,504-897-0191
POINT (-90.076989294557 29.951922709288),168,LA FAVORITA MARKET,3640 GENERAL DE GAULLE DR,,70114,504-217-1184
POINT (-90.073163333851 29.989042143521),281,SEATON SEAFOOD MARKET,3040 PARIS AVE,,70119,
POINT (-90.113504034513 30.025113324481),171,"LAKESHORE MARINE & FUEL, LLC",7840 LAKESHORE DR,,70124,504-723-3717
POINT (-90.079283058695 29.995957749312),289,SPIDERS  MEAT MARKET,3800 ST BERNARD AVE,,70122,504-455-8170
POINT (-90.049105787516 29.972033373326),177,LB SAINTS FOOD STORE,2601 N VILLERE ST,,70117,504-945-7799
POINT (-90.047663887495 29.976616712847),273,SAV-A-LOT,1841 ALMONASTER AVE,,70117,
POINT (-90.087753150927 29.924002275098),31,BREAUX MART SUPERMARKETS,3233 MAGAZINE ST,,70115,
POINT (-90.011105556545 29.959686103792),225,NOLA VILLAGE MARKET,6100 ST CLAUDE AVE,,70117,504-377-0670
POINT (-90.087191811039 29.932805949004),218,NEXT DOOR GROCERY,2733 BARONNE ST,,70113,
POINT (-90.041379393805 29.953988448223),255,RIVER FINE FOODS STORE,1403 PATTERSON ST,,70114,504-362-4795
POINT (-90.038540952832 29.97745500641),276,SAVERS,3233 N GALVEZ ST,,70117,504-518-0300
POINT (-90.080588160646 29.934384078034),290,ST CHARLES 155,2139 ST CHARLES AVE,,70130,
POINT (-90.089232387222 29.974850454542),160,JOHN & MARY FOOD STORE,3238 ORLEANS AVE,,70119,504-482-1144
POINT (-90.066932898 29.944944834434),210,NESBITS JULIA ST MARKET,333 JULIA ST,,70130,
POINT (-90.064759399398 29.941956775949),206,N'AWLINS GOODS,901 CONVENTION CENTER BLVD,STE 114,70130,
POINT (-90.074652351856 29.930853531636),186,MAGAZINE DISCOUNT MARKET,2000 MAGAZINE ST,,70130-5018,504-348-7617
POINT (-90.049790320384 29.972151382527),44,BROTHERS FRANKLIN,2509 N VILLERE ST,,70117,504-495-3342
POINT (-90.053327759356 29.997409977523),46,BROWN DERBY #4,3737 CLEMATIS ST,,70122,
POINT (-90.076989294557 29.951922709288),48,BUNN'S GROCERY,2438 BIENVILLE ST,,70119,
POINT (-90.066808496323 29.929229796583),16,AZ EXPRESS,1667 TCHOUPITOULAS ST,,70130,
POINT (-90.020827187447 29.962089767741),38,BROTHER'S ST CLAUDE,5104 ST CLAUDE AVE,A,70117,504-220-3777
POINT (-90.072237969408 29.957895506674),21,BASIN SUPERMARKET,237 BASIN ST,,70112,504-522-7947
POINT (-90.116208668355 29.950540239962),34,BROADWAY FOOD STORE,2223 BROADWAY ST,,70118-5409,504-861-0505
